NORAD_CAT_ID,OBJECT_NAME,OBJECT_TYPE,EPOCH,MEAN_MOTION,ECCENTRICITY,INCLINATION,RA_OF_ASC_NODE,ARG_OF_PERICENTER,MEAN_ANOMALY,BSTAR,MEAN_MOTION_DOT,MEAN_MOTION_DDOT,TLE_LINE0,TLE_LINE1,TLE_LINE2,SEMIMAJOR_AXIS,PERIOD,APOGEE,PERIGEE,DECAYED
52496.0,STARLINK-3871,PAYLOAD,2022-09-08 14:00:01,15.08864592,0.0001647,53.2138,21.7625,51.9261,162.2397,-0.0014117,-0.000227,0.0,0 STARLINK-3871,1 52496U 22049AX  22251.58334491 -.00022700  00000-0 -14117-2 0  9991,2 52496  53.2138  21.7625 0001647  51.9261 162.2397 15.08864592  1307,6917.805,95.436,540.81,538.531,0.0
52496.0,STARLINK-3871,PAYLOAD,2022-09-08 22:00:00,15.0885822,0.0001634,53.2135,20.2661,46.6282,179.1535,-0.0023253,-0.00037123,0.0,0 STARLINK-3871,1 52496U 22049AX  22251.91667824 -.00037123  00000-0 -23253-2 0  9993,2 52496  53.2135  20.2661 0001634  46.6282 179.1535 15.08858220  1300,6917.825,95.436,540.82,538.559,0.0
52496.0,STARLINK-3871,PAYLOAD,2022-09-09 06:00:00,15.08820057,0.0001465,53.2136,18.768,51.4191,185.9768,0.0032869999999999,0.00052385,0.0,0 STARLINK-3871,1 52496U 22049AX  22252.25001157  .00052385  00000-0  32870-2 0  9992,2 52496  53.2136  18.7680 0001465  51.4191 185.9768 15.08820057 19601,6917.941,95.439,540.82,538.793,0.0
52496.0,STARLINK-3871,PAYLOAD,2022-09-09 14:00:01,15.08867829,0.0001578,53.2137,17.2731,47.3529,201.6335,-0.0029721,-0.00047315,0.0,0 STARLINK-3871,1 52496U 22049AX  22252.58334491 -.00047315  00000-0 -29721-2 0  9998,2 52496  53.2137  17.2731 0001578  47.3529 201.6335 15.08867829  1309,6917.795,95.436,540.752,538.569,0.0
52496.0,STARLINK-3871,PAYLOAD,2022-09-09 22:00:00,15.08839578,0.0001588999999999,53.2136,15.7766,41.503,219.092,-0.00035825,-5.985e-05,0.0,0 STARLINK-3871,1 52496U 22049AX  22252.91667824 -.00005985  00000-0 -35825-3 0  9994,2 52496  53.2136  15.7766 0001589  41.5030 219.0920 15.08839578 19700,6917.882,95.438,540.846,538.6469999999998,0.0
52496.0,STARLINK-3871,PAYLOAD,2022-09-10 14:00:01,15.08830958,0.0001720999999999,53.214,12.7837,46.9435,236.8457,-0.00036206,-6.044e-05,0.0,0 STARLINK-3871,1 52496U 22049AX  22253.58334491 -.00006044  00000-0 -36206-3 0  9990,2 52496  53.2140  12.7837 0001721  46.9435 236.8457 15.08830958  1309,6917.908,95.438,540.964,538.582,0.0
52496.0,STARLINK-3871,PAYLOAD,2022-09-10 22:00:00,15.08859368,0.0001771999999999,53.2141,11.2872,44.3833,250.9865,-0.0034213,-0.00054357,0.0,0 STARLINK-3871,1 52496U 22049AX  22253.91667824 -.00054357  00000-0 -34213-2 0  9991,2 52496  53.2141  11.2872 0001772  44.3833 250.9865 15.08859368  1309,6917.821,95.436,540.9119999999998,538.46,0.0
52496.0,STARLINK-3871,PAYLOAD,2022-09-11 06:00:00,15.08805382,0.0001716,53.2144,9.7892,52.6838,254.2885,0.0034564,0.00055099,0.0,0 STARLINK-3871,1 52496U 22049AX  22254.25001157  .00055099  00000-0  34564-2 0  9991,2 52496  53.2144   9.7892 0001716  52.6838 254.2885 15.08805382 19913,6917.986,95.44,541.038,538.664,0.0
52496.0,STARLINK-3871,PAYLOAD,2022-09-11 14:00:01,15.08845396,0.0001879,53.2145,8.2945,47.7539,270.796,-0.00076454,-0.00012437,0.0,0 STARLINK-3871,1 52496U 22049AX  22254.58334491 -.00012437  00000-0 -76454-3 0  9993,2 52496  53.2145   8.2945 0001879  47.7539 270.7960 15.08845396  1300,6917.864000000001,95.437,541.029,538.429,0.0
52496.0,STARLINK-3871,PAYLOAD,2022-09-11 22:00:00,15.08854753,0.0001843,53.2146,6.7979,44.0478,286.0964,-0.0027096999999999,-0.00043173,0.0,0 STARLINK-3871,1 52496U 22049AX  22254.91667824 -.00043173  00000-0 -27097-2 0  9998,2 52496  53.2146   6.7979 0001843  44.0478 286.0964 15.08854753  1305,6917.835,95.437,540.975,538.425,0.0
52496.0,STARLINK-3871,PAYLOAD,2022-09-12 12:00:00,15.08836328,0.0001888,53.215,4.1791,48.1706,212.274,-0.00079956,-0.0001299,0.0,0 STARLINK-3871,1 52496U 22049AX  22255.50001157 -.00012990  00000-0 -79956-3 0  9990,2 52496  53.2150   4.1791 0001888  48.1706 212.2740 15.08836328 20090,6917.892,95.438,541.063,538.451,0.0
52496.0,STARLINK-3871,PAYLOAD,2022-09-12 14:00:01,15.08828829,0.0001963,53.2149,3.8054,47.0083,306.3346,0.00016275,2.302e-05,0.0,0 STARLINK-3871,1 52496U 22049AX  22255.58334491  .00002302  00000-0  16275-3 0  9997,2 52496  53.2149   3.8054 0001963  47.0083 306.3346 15.08828829  1303,6917.915,95.438,541.138,538.422,0.0
52496.0,STARLINK-3871,PAYLOAD,2022-09-12 22:00:00,15.08870207,0.0001889,53.2148,2.3086,44.8968,320.026,-0.0035692,-0.00056693,0.0,0 STARLINK-3871,1 52496U 22049AX  22255.91667824 -.00056693  00000-0 -35692-2 0  9990,2 52496  53.2148   2.3086 0001889  44.8968 320.0260 15.08870207  1300,6917.788000000001,95.436,540.96,538.346,0.0
52496.0,STARLINK-3871,PAYLOAD,2022-09-13 06:00:00,15.08813551,0.0001726,53.2151,0.8109999999999999,49.6278,326.9086,0.0033665999999999,0.00053661,0.0,0 STARLINK-3871,1 52496U 22049AX  22256.25001157  .00053661  00000-0  33666-2 0  9998,2 52496  53.2151   0.8110 0001726  49.6278 326.9086 15.08813551 20213,6917.9609999999975,95.439,541.02,538.632,0.0
52496.0,STARLINK-3871,PAYLOAD,2022-09-13 14:00:01,15.08859262,0.0001898,53.215,359.3164,43.4965,344.6248,-0.0024664,-0.00039348,0.0,0 STARLINK-3871,1 52496U 22049AX  22256.58334491 -.00039348  00000-0 -24664-2 0  9990,2 52496  53.2150 359.3164 0001898  43.4965 344.6248 15.08859262  1303,6917.821999999999,95.436,541.0,538.374,0.0
52496.0,STARLINK-3871,PAYLOAD,2022-09-13 16:00:00,15.08843836,0.0001927,53.2153,358.94199999999995,42.1819,78.8454,-0.00092741,-0.00015019,0.0,0 STARLINK-3871,1 52496U 22049AX  22256.66667824 -.00015019  00000-0 -92741-3 0  9999,2 52496  53.2153 358.9420 0001927  42.1819  78.8454 15.08843836 20275,6917.869000000002,95.437,541.067,538.401,0.0
52496.0,STARLINK-3871,PAYLOAD,2022-09-13 22:00:00,15.08846706,0.0001835,53.2148,357.8193,42.5527,357.158,-0.0042141999999999,-0.00066749,0.0,0 STARLINK-3871,1 52496U 22049AX  22256.91667824 -.00066749  00000-0 -42142-2 0  9992,2 52496  53.2148 357.8193 0001835  42.5527 357.1580 15.08846706  1307,6917.86,95.437,540.994,538.455,0.0
52496.0,STARLINK-3871,PAYLOAD,2022-09-14 14:00:01,15.08820394,0.0001888,53.2147,354.8273,45.1909,17.6621,0.00024161,3.557e-05,0.0,0 STARLINK-3871,1 52496U 22049AX  22257.58334491  .00003557  00000-0  24161-3 0  9995,2 52496  53.2147 354.8273 0001888  45.1909  17.6621 15.08820394  1302,6917.94,95.439,541.111,538.499,0.0
52496.0,STARLINK-3871,PAYLOAD,2022-09-14 22:00:00,15.08845519,0.0001829,53.2144,353.3301,44.7184,29.7041,-0.0013472,-0.00021668,0.0,0 STARLINK-3871,1 52496U 22049AX  22257.91667824 -.00021668  00000-0 -13472-2 0  9998,2 52496  53.2144 353.3301 0001829  44.7184  29.7041 15.08845519 20464,6917.864000000001,95.437,540.994,538.4630000000002,0.0
52496.0,STARLINK-3871,PAYLOAD,2022-09-15 14:00:01,15.08828571,0.00018,53.2142,350.3381,42.7716,54.8584,0.00016903,2.402e-05,0.0,0 STARLINK-3871,1 52496U 22049AX  22258.58334491  .00002402  00000-0  16903-3 0  9999,2 52496  53.2142 350.3381 0001800  42.7716  54.8584 15.08828571  1307,6917.915,95.438,541.026,538.535,0.0
52496.0,STARLINK-3871,PAYLOAD,2022-09-15 16:00:00,15.08807124,0.0001816,53.2142,349.9641,40.4858,150.0464,0.0033045,0.00052649,0.0,0 STARLINK-3871,1 52496U 22049AX  22258.66667824  .00052649  00000-0  33045-2 0  9990,2 52496  53.2142 349.9641 0001816  40.4858 150.0464 15.08807124  1306,6917.981,95.44,541.102,538.59,0.0
52496.0,STARLINK-3871,PAYLOAD,2022-09-15 23:06:29,15.08831456,0.0001728,53.2152,348.6339,47.8404,312.2735,4.0139e-06,-2.24e-06,0.0,0 STARLINK-3871,1 52496U 22049AX  22258.96284669 -.00000224  00000-0  40139-5 0  9993,2 52496  53.2152 348.6339 0001728  47.8404 312.2735 15.08831456 20621,6917.906999999997,95.438,540.967,538.576,0.0
52496.0,STARLINK-3871,PAYLOAD,2022-09-16 11:49:34,15.08833638,0.0001826,53.2153,346.2537,44.7458,315.3681,0.00018757,2.698e-05,0.0,0 STARLINK-3871,1 52496U 22049AX  22259.49276069  .00002698  00000-0  18757-3 0  9992,2 52496  53.2153 346.2537 0001826  44.7458 315.3681 15.08833638 20707,6917.9,95.438,541.028,538.502,0.0
52496.0,STARLINK-3871,PAYLOAD,2022-09-16 15:00:20,15.08834805,0.0001853,53.2153,345.6589,44.4574,315.6567,0.00015613,2.197e-05,0.0,0 STARLINK-3871,1 52496U 22049AX  22259.62524155  .00002197  00000-0  15613-3 0  9991,2 52496  53.2153 345.6589 0001853  44.4574 315.6567 15.08834805 20728,6917.896,95.438,541.043,538.479,0.0
52496.0,STARLINK-3871,PAYLOAD,2022-09-17 05:18:49,15.08833553,0.0001979,53.2148,342.9824,48.165,311.9511,-4.1e-06,-3.53e-06,0.0,0 STARLINK-3871,1 52496U 22049AX  22260.22141010 -.00000353  00000-0 -41000-5 0  9999,2 52496  53.2148 342.9824 0001979  48.1650 311.9511 15.08833553 20816,6917.9,95.438,541.134,538.396,0.0
52496.0,STARLINK-3871,PAYLOAD,2022-09-17 11:40:22,15.08831065,0.0001821,53.2151,341.7928,48.1784,311.9363,-7.2407e-05,-1.44e-05,0.0,0 STARLINK-3871,1 52496U 22049AX  22260.48637509 -.00001440  00000-0 -72407-4 0  9992,2 52496  53.2151 341.7928 0001821  48.1784 311.9363 15.08831065 20851,6917.908,95.438,541.0319999999998,538.513,0.0
52496.0,STARLINK-3871,PAYLOAD,2022-09-17 14:51:09,15.08831679,0.0001837,53.2151,341.1981,47.5291,312.5856,-6.6465e-05,-1.346e-05,0.0,0 STARLINK-3871,1 52496U 22049AX  22260.61885515 -.00001346  00000-0 -66465-4 0  9991,2 52496  53.2151 341.1981 0001837  47.5291 312.5856 15.08831679 20874,6917.906,95.438,541.0419999999998,538.5,0.0
52496.0,STARLINK-3871,PAYLOAD,2022-09-18 11:31:08,15.08844402,0.0001833,53.2151,337.3322,45.8174,314.2969,4.4821e-05,4.25e-06,0.0,0 STARLINK-3871,1 52496U 22049AX  22261.47996463  .00000425  00000-0  44821-4 0  9998,2 52496  53.2151 337.3322 0001833  45.8174 314.2969 15.08844402 21005,6917.8669999999975,95.437,541.0,538.464,0.0
52496.0,STARLINK-3871,PAYLOAD,2022-09-19 11:21:55,15.08840177,0.0001885,53.2149,332.8719,44.3443,315.77,0.00012863,1.76e-05,0.0,0 STARLINK-3871,1 52496U 22049AX  22262.47356214  .00001760  00000-0  12863-3 0  9996,2 52496  53.2149 332.8719 0001885  44.3443 315.7700 15.08840177 21152,6917.88,95.438,541.049,538.441,0.0
